H1 CPF  1  DLR 2021 03 14 10  5732 technosat            
H2  1704205 6203    42829 2021 03 14 00 00 00 2021 03 21 00 00 00    60 1 1  0 0 0
H9
10 0 59287  72000.000000  0      -3012100.774      -1674748.773      -6081061.897
10 0 59287  72060.000000  0      -3402771.461      -1736203.524      -5853143.715
10 0 59287  72120.000000  0      -3779751.923      -1787063.791      -5600653.206
10 0 59287  72180.000000  0      -4141369.107      -1827240.497      -5324637.243
10 0 59287  72240.000000  0      -4486011.047      -1856702.942      -5026241.785
10 0 59287  72300.000000  0      -4812134.119      -1875478.471      -4706707.527
10 0 59287  72360.000000  0      -5118270.106      -1883651.857      -4367365.153
10 0 59287  72420.000000  0      -5403033.039      -1881364.414      -4009630.176
10 0 59287  72480.000000  0      -5665125.756      -1868812.805      -3634997.350
10 0 59287  72540.000000  0      -5903346.119      -1846247.574      -3245034.680
10 0 59287  72600.000000  0      -6116592.843      -1813971.378      -2841377.075
10 0 59287  72660.000000  0      -6303870.939      -1772336.956      -2425719.682
10 0 59287  72720.000000  0      -6464296.724      -1721744.817      -1999810.881
10 0 59287  72780.000000  0      -6597102.362      -1662640.694      -1565444.989
10 0 59287  72840.000000  0      -6701639.886      -1595512.753      -1124454.683
10 0 59287  72900.000000  0      -6777384.697      -1520888.568       -678703.214
10 0 59287  72960.000000  0      -6823938.502      -1439331.848       -230076.403
10 0 59287  73020.000000  0      -6841031.641      -1351438.980        219525.497
10 0 59287  73080.000000  0      -6828524.804      -1257835.411        668196.053
10 0 59287  73140.000000  0      -6786410.112      -1159171.880       1114030.969
10 0 59287  73200.000000  0      -6714811.554      -1056120.522       1555136.429
10 0 59287  73260.000000  0      -6613984.806       -949370.854       1989637.391
10 0 59287  73320.000000  0      -6484316.382       -839625.696       2415685.831
10 0 59287  73380.000000  0      -6326322.171       -727597.027       2831468.855
10 0 59287  73440.000000  0      -6140645.338       -614001.777       3235216.683
10 0 59287  73500.000000  0      -5928053.571       -499557.627       3625210.434
10 0 59287  73560.000000  0      -5689435.680       -384978.851       3999789.649
10 0 59287  73620.000000  0      -5425797.642       -270972.228       4357359.471
10 0 59287  73680.000000  0      -5138258.130       -158233.010       4696397.519
10 0 59287  73740.000000  0      -4828043.536        -47440.966       5015460.404
10 0 59287  73800.000000  0      -4496482.545         60743.467       5313189.900
10 0 59287  73860.000000  0      -4145000.234        165682.882       5588318.784
10 0 59287  73920.000000  0      -3775111.654        266766.426       5839676.238
10 0 59287  73980.000000  0      -3388415.051        363413.159       6066192.790
10 0 59287  74040.000000  0      -2986584.699        455075.199       6266904.763
10 0 59287  74100.000000  0      -2571363.500        541240.631       6440958.299
10 0 59287  74160.000000  0      -2144555.230        621436.243       6587612.992
10 0 59287  74220.000000  0      -1708016.473        695230.028       6706244.927
10 0 59287  74280.000000  0      -1263648.400        762233.431       6796349.175
10 0 59287  74340.000000  0       -813388.433        822103.331       6857541.860
10 0 59287  74400.000000  0       -359201.699        874543.746       6889561.754
10 0 59287  74460.000000  0         96927.608        919307.280       6892271.330
10 0 59287  74520.000000  0        553004.940        956196.292       6865657.379
10 0 59287  74580.000000  0       1007034.203        985063.805       6809831.103
10 0 59287  74640.000000  0       1457026.566       1005814.116       6725027.685
10 0 59287  74700.000000  0       1901009.256       1018403.104       6611605.359
10 0 59287  74760.000000  0       2337034.281       1022838.253       6470043.989
10 0 59287  74820.000000  0       2763187.110       1019178.389       6300943.205
10 0 59287  74880.000000  0       3177595.304       1007533.115       6105019.975
10 0 59287  74940.000000  0       3578436.926        988061.968       5883105.604
10 0 59287  75000.000000  0       3963948.692        960973.308       5636142.297
10 0 59287  75060.000000  0       4332433.917        926522.909       5365179.291
10 0 59287  75120.000000  0       4682270.220        885012.259       5071368.561
10 0 59287  75180.000000  0       5011917.016        836786.601       4755960.073
10 0 59287  75240.000000  0       5319922.670        782232.745       4420296.453
10 0 59287  75300.000000  0       5604931.192        721776.644       4065807.233
10 0 59287  75360.000000  0       5865688.535        655880.729       3694002.714
10 0 59287  75420.000000  0       6101048.424        585041.041       3306467.376
10 0 59287  75480.000000  0       6309977.568        509784.144       2904852.934
10 0 59287  75540.000000  0       6491560.402        430663.816       2490871.251
10 0 59287  75600.000000  0       6645003.448        348257.589       2066286.904
10 0 59287  75660.000000  0       6769639.007        263163.211       1632909.326
10 0 59287  75720.000000  0       6864928.110        175994.954       1192584.783
10 0 59287  75780.000000  0       6930462.886         87379.832        747188.294
10 0 59287  75840.000000  0       6965968.418         -2046.280        298615.373
10 0 59287  75900.000000  0       6971303.852        -91642.555       -151226.461
10 0 59287  75960.000000  0       6946462.734       -180767.163       -600426.075
10 0 59287  76020.000000  0       6891572.821       -268781.209      -1047077.074
10 0 59287  76080.000000  0       6806895.204       -355052.628      -1489286.183
10 0 59287  76140.000000  0       6692822.724       -438960.042      -1925181.491
10 0 59287  76200.000000  0       6549877.800       -519896.547      -2352920.499
10 0 59287  76260.000000  0       6378709.667       -597273.406      -2770698.014
10 0 59287  76320.000000  0       6180091.014       -670523.613      -3176753.833
10 0 59287  76380.000000  0       5954914.061       -739105.322      -3569380.136
10 0 59287  76440.000000  0       5704186.100       -802505.100      -3946928.617
10 0 59287  76500.000000  0       5429024.527       -860240.996      -4307817.252
10 0 59287  76560.000000  0       5130651.437       -911865.404      -4650536.685
10 0 59287  76620.000000  0       4810387.858       -956967.731      -4973656.278
10 0 59287  76680.000000  0       4469647.566       -995176.861      -5275829.794
10 0 59287  76740.000000  0       4109930.548      -1026163.411      -5555800.671
10 0 59287  76800.000000  0       3732816.136      -1049641.753      -5812406.873
10 0 59287  76860.000000  0       3339955.858      -1065371.775      -6044585.292
10 0 59287  76920.000000  0       2933066.101      -1073160.362      -6251375.715
10 0 59287  76980.000000  0       2513920.565      -1072862.607      -6431924.387
10 0 59287  77040.000000  0       2084342.534      -1064382.764      -6585487.121
10 0 59287  77100.000000  0       1646197.038      -1047674.995      -6711431.967
10 0 59287  77160.000000  0       1201382.898      -1022743.869      -6809241.468
10 0 59287  77220.000000  0        751824.684       -989644.572      -6878514.528
10 0 59287  77280.000000  0        299464.559       -948482.803      -6918967.808
10 0 59287  77340.000000  0       -153745.830       -899414.455      -6930436.624
10 0 59287  77400.000000  0       -605853.424       -842645.045      -6912875.543
10 0 59287  77460.000000  0      -1054911.930       -778428.889      -6866358.571
10 0 59287  77520.000000  0      -1498989.947       -707067.974      -6791078.819
10 0 59287  77580.000000  0      -1936178.991       -628910.587      -6687347.761
10 0 59287  77640.000000  0      -2364601.434       -544349.733      -6555594.029
10 0 59287  77700.000000  0      -2782418.249       -453821.299      -6396361.824
10 0 59287  77760.000000  0      -3187836.655       -357801.963      -6210309.018
10 0 59287  77820.000000  0      -3579117.705       -256806.889      -5998204.843
10 0 59287  77880.000000  0      -3954583.757       -151387.178      -5760927.067
10 0 59287  77940.000000  0      -4312625.636        -42127.098      -5499458.669
10 0 59287  78000.000000  0      -4651709.523         70358.860      -5214884.175
10 0 59287  78060.000000  0      -4970383.622        185429.115      -4908385.618
10 0 59287  78120.000000  0      -5267284.599        302418.330      -4581238.082
10 0 59287  78180.000000  0      -5541143.711        420640.968      -4234804.789
10 0 59287  78240.000000  0      -5790792.520        539394.985      -3870531.712
10 0 59287  78300.000000  0      -6015168.194        657965.618      -3489941.885
10 0 59287  78360.000000  0      -6213318.462        775629.346      -3094629.312
10 0 59287  78420.000000  0      -6384406.032        891657.941      -2686252.452
10 0 59287  78480.000000  0      -6527712.513       1005322.553      -2266527.413
10 0 59287  78540.000000  0      -6642641.842       1115897.880      -1837220.887
10 0 59287  78600.000000  0      -6728723.274       1222666.399      -1400142.768
10 0 59287  78660.000000  0      -6785613.735       1324922.579       -957138.388
10 0 59287  78720.000000  0      -6813099.479       1421977.045       -510080.560
10 0 59287  78780.000000  0      -6811097.091       1513160.653        -60861.530
10 0 59287  78840.000000  0      -6779653.949       1597828.559        388615.145
10 0 59287  78900.000000  0      -6718948.097       1675364.199        836442.841
10 0 59287  78960.000000  0      -6629287.479       1745183.128       1280720.205
10 0 59287  79020.000000  0      -6511108.515       1806736.716       1719559.487
10 0 59287  79080.000000  0      -6364974.057       1859515.676       2151094.836
10 0 59287  79140.000000  0      -6191570.714       1903053.384       2573490.510
99
